[Satellite]
VERSION=1.1
NAME=CubeBel-2 (EU11S)
NICKNAME=CubeBel-2 (EU11S)
TLE1=1 57175U 23091K   25178.87807729  .00005872  00000-0  27870-3 0  9990
TLE2=2 57175  97.5565 235.4246 0010354 278.3000  81.7060 15.19603279110336
STATUS=0
